[{"OBJECT_NAME":"ASNARO-2","OBJECT_ID":"2018-007A","EPOCH":"2026-03-08T18:06:21.285792","MEAN_MOTION":15.22434719,"ECCENTRICITY":0.00020856,"INCLINATION":97.403,"RA_OF_ASC_NODE":76.2222,"ARG_OF_PERICENTER":88.5161,"MEAN_ANOMALY":271.6314,"EPHEMERIS_TYPE":0,"CLASSIFICATION_TYPE":"U","NORAD_CAT_ID":43152,"ELEMENT_SET_NO":999,"REV_AT_EPOCH":45213,"BSTAR":0.00060724701,"MEAN_MOTION_DOT":0.00013989,"MEAN_MOTION_DDOT":0},{"OBJECT_NAME":"STARLINK-5547","OBJECT_ID":"2023-013X","EPOCH":"2026-03-09T22:00:01.999584","MEAN_MOTION":15.18674823,"ECCENTRICITY":0.00015552,"INCLINATION":42.9992,"RA_OF_ASC_NODE":298.2701,"ARG_OF_PERICENTER":289.0622,"MEAN_ANOMALY":57.5598,"EPHEMERIS_TYPE":0,"CLASSIFICATION_TYPE":"U","NORAD_CAT_ID":55352,"ELEMENT_SET_NO":999,"REV_AT_EPOCH":578,"BSTAR":0.050453363,"MEAN_MOTION_DOT":0.01159018,"MEAN_MOTION_DDOT":0}]
